[{"OBJECT_NAME":"STARLINK-36597","OBJECT_ID":"2026-018AA","EPOCH":"2026-03-09T22:00:01.999584","MEAN_MOTION":15.6227294,"ECCENTRICITY":0.00019632,"INCLINATION":97.2837,"RA_OF_ASC_NODE":134.8157,"ARG_OF_PERICENTER":78.0826,"MEAN_ANOMALY":100.8672,"EPHEMERIS_TYPE":0,"CLASSIFICATION_TYPE":"U","NORAD_CAT_ID":67613,"ELEMENT_SET_NO":999,"REV_AT_EPOCH":604,"BSTAR":-0.025061707,"MEAN_MOTION_DOT":-0.01947068,"MEAN_MOTION_DDOT":0},{"OBJECT_NAME":"COSMOS 1703","OBJECT_ID":"1985-108A","EPOCH":"2026-03-09T17:57:42.122880","MEAN_MOTION":15.50625975,"ECCENTRICITY":0.00059475,"INCLINATION":82.4603,"RA_OF_ASC_NODE":321.559,"ARG_OF_PERICENTER":16.4744,"MEAN_ANOMALY":343.6699,"EPHEMERIS_TYPE":0,"CLASSIFICATION_TYPE":"U","NORAD_CAT_ID":16262,"ELEMENT_SET_NO":999,"REV_AT_EPOCH":20203,"BSTAR":0.00045588511,"MEAN_MOTION_DOT":0.00026209,"MEAN_MOTION_DDOT":0}]
